{
  "type": "FeatureCollection",
  "features": [
    {
      "type": "Feature",
      "properties": {
        "norad_id": 58647,
        "name": "TIANMU-1 13",
        "group": "weather",
        "lat": 9.757046702171566,
        "lon": -170.5179294022205,
        "alt_km": 493.79911513439856,
        "timestamp": "2025-12-14T14:39:29.019411+00:00",
        "meta_object_name": "TIANMU-1 13",
        "meta_object_id": "2023-205C",
        "meta_epoch": "2025-12-13T23:44:12.326784",
        "meta_mean_motion": 15.2454744,
        "meta_eccentricity": 0.00060356,
        "meta_inclination": 97.3627,
        "meta_ra_of_asc_node": 7.597,
        "meta_arg_of_pericenter": 261.5088,
        "meta_mean_anomaly": 98.5466,
        "meta_ephemeris_type": 0,
        "meta_classification_type": "U",
        "meta_norad_cat_id": 58647,
        "meta_element_set_no": 999,
        "meta_rev_at_epoch": 10926,
        "meta_bstar": 0.00031577821,
        "meta_mean_motion_dot": 7.708e-05,
        "meta_mean_motion_ddot": 0,
        "tle_line1": "1 58647U 23205C   25347.98903156  .00007708  00000+0  31578-3 0  9992",
        "tle_line2": "2 58647  97.3627   7.5970 0006035 261.5088  98.5466 15.24547440109260"
      },
      "geometry": {
        "type": "Point",
        "coordinates": [
          -170.5179294022205,
          9.757046702171566
        ]
      }
    },
    {
      "type": "Feature",
      "properties": {
        "norad_id": 58648,
        "name": "TIANMU-1 14",
        "group": "weather",
        "lat": -78.43572985347699,
        "lon": 148.4059317212592,
        "alt_km": 494.8433937838854,
        "timestamp": "2025-12-14T14:39:29.019421+00:00",
        "meta_object_name": "TIANMU-1 14",
        "meta_object_id": "2023-205D",
        "meta_epoch": "2025-12-14T00:54:50.123232",
        "meta_mean_motion": 15.24531178,
        "meta_eccentricity": 0.00068335,
        "meta_inclination": 97.3559,
        "meta_ra_of_asc_node": 6.9927,
        "meta_arg_of_pericenter": 267.1104,
        "meta_mean_anomaly": 92.9351,
        "meta_ephemeris_type": 0,
        "meta_classification_type": "U",
        "meta_norad_cat_id": 58648,
        "meta_element_set_no": 999,
        "meta_rev_at_epoch": 10927,
        "meta_bstar": 0.00029602879,
        "meta_mean_motion_dot": 7.219e-05,
        "meta_mean_motion_ddot": 0,
        "tle_line1": "1 58648U 23205D   25348.03808013  .00007219  00000+0  29603-3 0  9999",
        "tle_line2": "2 58648  97.3559   6.9927 0006833 267.1104  92.9351 15.24531178109270"
      },
      "geometry": {
        "type": "Point",
        "coordinates": [
          148.4059317212592,
          -78.43572985347699
        ]
      }
    },
    {
      "type": "Feature",
      "properties": {
        "norad_id": 58660,
        "name": "TIANMU-1 19",
        "group": "weather",
        "lat": 1.4247271819543688,
        "lon": -80.17007468410178,
        "alt_km": 483.88136132783075,
        "timestamp": "2025-12-14T14:39:29.019432+00:00",
        "meta_object_name": "TIANMU-1 19",
        "meta_object_id": "2023-208A",
        "meta_epoch": "2025-12-13T23:43:58.355904",
        "meta_mean_motion": 15.27881403,
        "meta_eccentricity": 0.00041425,
        "meta_inclination": 97.4384,
        "meta_ra_of_asc_node": 99.0232,
        "meta_arg_of_pericenter": 247.0715,
        "meta_mean_anomaly": 113.0087,
        "meta_ephemeris_type": 0,
        "meta_classification_type": "U",
        "meta_norad_cat_id": 58660,
        "meta_element_set_no": 999,
        "meta_rev_at_epoch": 10901,
        "meta_bstar": 0.0003970762,
        "meta_mean_motion_dot": 0.0001074,
        "meta_mean_motion_ddot": 0,
        "tle_line1": "1 58660U 23208A   25347.98886986  .00010740  00000+0  39708-3 0  9994",
        "tle_line2": "2 58660  97.4384  99.0232 0004142 247.0715 113.0087 15.27881403109014"
      },
      "geometry": {
        "type": "Point",
        "coordinates": [
          -80.17007468410178,
          1.4247271819543688
        ]
      }
    },
    {
      "type": "Feature",
      "properties": {
        "norad_id": 58661,
        "name": "TIANMU-1 20",
        "group": "weather",
        "lat": -78.15229918590107,
        "lon": -118.38926955958364,
        "alt_km": 481.5736333045825,
        "timestamp": "2025-12-14T14:39:29.019442+00:00",
        "meta_object_name": "TIANMU-1 20",
        "meta_object_id": "2023-208B",
        "meta_epoch": "2025-12-13T23:23:08.002752",
        "meta_mean_motion": 15.29071714,
        "meta_eccentricity": 0.00063155,
        "meta_inclination": 97.4322,
        "meta_ra_of_asc_node": 99.4575,
        "meta_arg_of_pericenter": 260.7005,
        "meta_mean_anomaly": 99.3521,
        "meta_ephemeris_type": 0,
        "meta_classification_type": "U",
        "meta_norad_cat_id": 58661,
        "meta_element_set_no": 999,
        "meta_rev_at_epoch": 10908,
        "meta_bstar": 0.00036833683,
        "meta_mean_motion_dot": 0.00010329,
        "meta_mean_motion_ddot": 0,
        "tle_line1": "1 58661U 23208B   25347.97439818  .00010329  00000+0  36834-3 0  9992",
        "tle_line2": "2 58661  97.4322  99.4575 0006315 260.7005  99.3521 15.29071714109083"
      },
      "geometry": {
        "type": "Point",
        "coordinates": [
          -118.38926955958364,
          -78.15229918590107
        ]
      }
    },
    {
      "type": "Feature",
      "properties": {
        "norad_id": 58662,
        "name": "TIANMU-1 21",
        "group": "weather",
        "lat": -75.61181668472057,
        "lon": 132.61979253801474,
        "alt_km": 474.87215579621443,
        "timestamp": "2025-12-14T14:39:29.019473+00:00",
        "meta_object_name": "TIANMU-1 21",
        "meta_object_id": "2023-208C",
        "meta_epoch": "2025-12-13T23:18:59.382432",
        "meta_mean_motion": 15.31586859,
        "meta_eccentricity": 0.00058834,
        "meta_inclination": 97.437,
        "meta_ra_of_asc_node": 101.3685,
        "meta_arg_of_pericenter": 254.9341,
        "meta_mean_anomaly": 105.1249,
        "meta_ephemeris_type": 0,
        "meta_classification_type": "U",
        "meta_norad_cat_id": 58662,
        "meta_element_set_no": 999,
        "meta_rev_at_epoch": 10918,
        "meta_bstar": 0.00039661575,
        "meta_mean_motion_dot": 0.00012031,
        "meta_mean_motion_ddot": 0,
        "tle_line1": "1 58662U 23208C   25347.97152063  .00012031  00000+0  39662-3 0  9991",
        "tle_line2": "2 58662  97.4370 101.3685 0005883 254.9341 105.1249 15.31586859109187"
      },
      "geometry": {
        "type": "Point",
        "coordinates": [
          132.61979253801474,
          -75.61181668472057
        ]
      }
    },
    {
      "type": "Feature",
      "properties": {
        "norad_id": 58663,
        "name": "TIANMU-1 22",
        "group": "weather",
        "lat": 1.8635003029801627,
        "lon": -80.05459010525821,
        "alt_km": 486.00922581198756,
        "timestamp": "2025-12-14T14:39:29.019491+00:00",
        "meta_object_name": "TIANMU-1 22",
        "meta_object_id": "2023-208D",
        "meta_epoch": "2025-12-13T23:43:57.017568",
        "meta_mean_motion": 15.27633702,
        "meta_eccentricity": 0.00026504,
        "meta_inclination": 97.4378,
        "meta_ra_of_asc_node": 99.0816,
        "meta_arg_of_pericenter": 279.8647,
        "meta_mean_anomaly": 80.2293,
        "meta_ephemeris_type": 0,
        "meta_classification_type": "U",
        "meta_norad_cat_id": 58663,
        "meta_element_set_no": 999,
        "meta_rev_at_epoch": 10902,
        "meta_bstar": 0.00037088522,
        "meta_mean_motion_dot": 9.949e-05,
        "meta_mean_motion_ddot": 0,
        "tle_line1": "1 58663U 23208D   25347.98885437  .00009949  00000+0  37089-3 0  9996",
        "tle_line2": "2 58663  97.4378  99.0816 0002650 279.8647  80.2293 15.27633702109029"
      },
      "geometry": {
        "type": "Point",
        "coordinates": [
          -80.05459010525821,
          1.8635003029801627
        ]
      }
    },
    {
      "type": "Feature",
      "properties": {
        "norad_id": 58700,
        "name": "TIANMU-1 15",
        "group": "weather",
        "lat": -70.31715699729567,
        "lon": -168.4285797187045,
        "alt_km": 495.0835727552603,
        "timestamp": "2025-12-14T14:39:29.019506+00:00",
        "meta_object_name": "TIANMU-1 15",
        "meta_object_id": "2024-004A",
        "meta_epoch": "2025-12-11T12:56:40.540704",
        "meta_mean_motion": 15.24670451,
        "meta_eccentricity": 0.00052437,
        "meta_inclination": 97.4631,
        "meta_ra_of_asc_node": 167.0136,
        "meta_arg_of_pericenter": 303.7498,
        "meta_mean_anomaly": 56.324,
        "meta_ephemeris_type": 0,
        "meta_classification_type": "U",
        "meta_norad_cat_id": 58700,
        "meta_element_set_no": 999,
        "meta_rev_at_epoch": 10716,
        "meta_bstar": 0.00086402607,
        "meta_mean_motion_dot": 0.00021326,
        "meta_mean_motion_ddot": 0,
        "tle_line1": "1 58700U 24004A   25345.53935811  .00021326  00000+0  86403-3 0  9991",
        "tle_line2": "2 58700  97.4631 167.0136 0005243 303.7498  56.3240 15.24670451107164"
      },
      "geometry": {
        "type": "Point",
        "coordinates": [
          -168.4285797187045,
          -70.31715699729567
        ]
      }
    }
  ]
}